IRIDIUM 144             
1 43249U 18030A   25224.57466984  .00000047  00000+0  95599-5 0  9990
2 43249  86.3918  59.4132 0002183  91.4942 268.6504 14.34217690385909
IRIDIUM 149             
1 43250U 18030B   25224.58101128  .00000034  00000+0  50665-5 0  9990
2 43250  86.3917  59.3810 0002188  91.5954 268.5492 14.34217896385926
IRIDIUM 157             
1 43251U 18030C   25224.60004082  .00000005  00000+0 -52931-5 0  9992
2 43251  86.3917  59.4192 0002147  83.8896 276.2544 14.34217200385906
IRIDIUM 140             
1 43252U 18030D   25224.61906727  .00000031  00000+0  39211-5 0  9995
2 43252  86.3919  59.4248 0002054  92.9906 267.1524 14.34217754385968
IRIDIUM 145             
1 43253U 18030E   25224.60638366  .00000030  00000+0  37356-5 0  9993
2 43253  86.3920  59.4029 0002303  98.9505 261.1951 14.34217418385893
IRIDIUM 146             
1 43254U 18030F   25224.58735534  .00000052  00000+0  11483-4 0  9992
2 43254  86.3918  59.4242 0002259  97.9544 262.1909 14.34217661385906
IRIDIUM 148             
1 43255U 18030G   25224.62541177  .00000003  00000+0 -58273-5 0  9992
2 43255  86.3916  59.4466 0002209  88.7996 271.3453 14.34217130385948
IRIDIUM 142             
1 43256U 18030H   25224.59369771  .00000036  00000+0  57365-5 0  9993
2 43256  86.3917  59.3601 0002387 100.6039 259.5425 14.34217730385908
